{
  "norad_id": 57231,
  "name": "STARLINK-5840",
  "history": [
    {
      "epoch": "2026-03-28T20:13:30.910368",
      "apogee_km": 486.42539701574424,
      "perigee_km": 484.6763920664571,
      "latitude_deg": 9.045782196710636,
      "longitude_deg": -15.9989884798415,
      "semi_major_axis_km": 6863.687894541101,
      "eccentricity": 0.00012741,
      "inclination_deg": 42.9994,
      "raan_deg": 282.6348,
      "arg_perigee_deg": 251.2289,
      "mean_anomaly_deg": 108.8424,
      "mean_motion_rev_day": 15.26744877
    }
  ]
}