{"fetched_at":"2026-03-30T06:02:59Z","count":15439,"tles":[{"name":"STARLINK-5840","line1":"1 57231U 23094P   26087.84271887  .00007539  00000+0  29040-3 0  9995","line2":"2 57231  42.9994 282.6348 0001274 251.2289 108.8424 15.26744877150041","category":"Starlink"}]}